KUIPER-00074            
1 64821U 25151F   25220.56753898  .00024019  00000+0  69194-3 0  9994
2 64821  51.8771 175.2766 0004783 228.3538 131.7039 15.35605167  3577
KUIPER-00075            
1 64822U 25151G   25220.58335648 -.00006851  00000+0 -18328-3 0  9995
2 64822  51.8777 175.1960 0004727 220.0618 233.5005 15.35739264  3418
KUIPER-00076            
1 64823U 25151H   25220.56926260  .00023715  00000+0  68641-3 0  9999
2 64823  51.8770 175.2878 0004983 222.9096 137.1502 15.35464653  3571
KUIPER-00077            
1 64824U 25151J   25220.37635833  .00018297  00000+0  53302-3 0  9999
2 64824  51.8784 176.2522 0005346 235.9355 124.1124 15.35430256  3545
KUIPER-00078            
1 64825U 25151K   25220.57112408  .00025420  00000+0  73479-3 0  9993
2 64825  51.8777 175.3031 0005528 238.5159 121.5287 15.35463330  3579
KUIPER-00079            
1 64826U 25151L   25220.36639706  .00022302  00000+0  63309-3 0  9993
2 64826  51.8777 176.1849 0005859 212.0917 147.9714 15.36107634  4742
KUIPER-00080            
1 64827U 25151M   25220.50084802  .00022521  00000+0  64516-3 0  9995
2 64827  51.8779 175.5879 0004857 223.2064 136.8541 15.35820764  3564
KUIPER-00082            
1 64828U 25151N   25220.49926986  .00021949  00000+0  62705-3 0  9993
2 64828  51.8774 175.5722 0005287 218.8350 141.2257 15.35920481  3564
KUIPER-00083            
1 64829U 25151P   25220.37492599 -.00203849  00000+0 -60239-2 0  9991
2 64829  51.8771 176.2362 0007629 221.0430 138.9982 15.35163761  4735
KUIPER-00084            
1 64830U 25151Q   25220.58335648 -.00697695  00000+0 -28693-1 0  9990
2 64830  51.8832 175.6566 0006197 233.5557 341.4693 15.26263066  3302
KUIPER-00085            
1 64831U 25151R   25220.49727393  .00022114  00000+0  62979-3 0  9996
2 64831  51.8777 175.5611 0005850 216.0988 143.9604 15.36011934  3561
KUIPER-00086            
1 64832U 25151S   25220.50721015  .00020773  00000+0  60489-3 0  9997
2 64832  51.8773 175.6234 0005300 238.9869 121.0597 15.35356703  3553
KUIPER-00087            
1 64833U 25151T   25220.50067120  .00022662  00000+0  65016-3 0  9998
2 64833  51.8776 175.5853 0005243 214.5970 145.4676 15.35769118  3569
KUIPER-00089            
1 64834U 25151U   25220.57012440  .00004374  00000+0  13592-3 0  9993
2 64834  51.8781 175.3006 0005009 232.5635 127.4896 15.35459400  3577
KUIPER-00090            
1 64835U 25151V   25220.57340981  .00018554  00000+0  54355-3 0  9995
2 64835  51.8779 175.3191 0005493 241.9142 118.1289 15.35243646  3570
KUIPER-00091            
1 64836U 25151W   25220.49824334  .00023321  00000+0  66665-3 0  9991
2 64836  51.8773 175.5652 0005326 213.1109 146.9544 15.35864069  3568
KUIPER-00092            
1 64837U 25151X   25220.37098952  .00021879  00000+0  62766-3 0  9992
2 64837  51.8771 176.2100 0005168 224.1207 135.9367 15.35792639  4754
KUIPER-00093            
1 64838U 25151Y   25220.56956506  .00014047  00000+0  41037-3 0  9999
2 64838  51.8784 175.2977 0005070 229.5477 130.5067 15.35556605  3578
KUIPER-00094            
1 64839U 25151Z   25220.37048154  .00022652  00000+0  64989-3 0  9992
2 64839  51.8771 176.2078 0004864 225.2583 134.8008 15.35769606  3545
